{"type": "FeatureCollection", "features": [{"type": "Feature", "properties": {"norad_id": 2807, "name": "OPS 7218 (TRANSIT 16)", "group": "nnss", "lat": -0.6968512936770489, "lon": 173.76350362339272, "alt_km": 1071.8024045482807, "timestamp": "2025-12-20T11:30:28.645660+00:00", "meta": {"OBJECT_NAME": "OPS 7218 (TRANSIT 16)", "OBJECT_ID": "1967-048A", "EPOCH": "2025-12-20T02:04:17.194368", "MEAN_MOTION": 13.50723755, "ECCENTRICITY": 0.0022144, "INCLINATION": 89.673, "RA_OF_ASC_NODE": 353.7725, "ARG_OF_PERICENTER": 94.5084, "MEAN_ANOMALY": 335.0389, "EPHEMERIS_TYPE": 0, "CLASSIFICATION_TYPE": "U", "NORAD_CAT_ID": 2807, "ELEMENT_SET_NO": 999, "REV_AT_EPOCH": 88375, "BSTAR": 0.00014544, "MEAN_MOTION_DOT": 1.04e-06, "MEAN_MOTION_DDOT": 0}, "tle": {"line1": "1 02807U 67048A   25354.08631012  .00000104  00000+0  14544-3 0  9997", "line2": "2 02807  89.6730 353.7725 0022144  94.5084 335.0389 13.50723755883757"}}, "geometry": {"type": "Point", "coordinates": [173.76350362339272, -0.6968512936770489]}}, {"type": "Feature", "properties": {"norad_id": 2965, "name": "OPS 4947 (TRANSIT 17)", "group": "nnss", "lat": -38.755859740381155, "lon": 23.241870599677476, "alt_km": 1077.7185419373827, "timestamp": "2025-12-20T11:30:28.645682+00:00", "meta": {"OBJECT_NAME": "OPS 4947 (TRANSIT 17)", "OBJECT_ID": "1967-092A", "EPOCH": "2025-12-20T03:07:42.632256", "MEAN_MOTION": 13.53455414, "ECCENTRICITY": 0.0046696, "INCLINATION": 89.2488, "RA_OF_ASC_NODE": 23.8719, "ARG_OF_PERICENTER": 212.4809, "MEAN_ANOMALY": 208.1838, "EPHEMERIS_TYPE": 0, "CLASSIFICATION_TYPE": "U", "NORAD_CAT_ID": 2965, "ELEMENT_SET_NO": 999, "REV_AT_EPOCH": 87197, "BSTAR": 0.00019202, "MEAN_MOTION_DOT": 1.41e-06, "MEAN_MOTION_DDOT": 0}, "tle": {"line1": "1 02965U 67092A   25354.13035454  .00000141  00000+0  19202-3 0  9992", "line2": "2 02965  89.2488  23.8719 0046696 212.4809 208.1838 13.53455414871977"}}, "geometry": {"type": "Point", "coordinates": [23.241870599677476, -38.755859740381155]}}, {"type": "Feature", "properties": {"norad_id": 3133, "name": "OPS 7034 (TRANSIT 18)", "group": "nnss", "lat": 56.556496104421754, "lon": -86.38213653037312, "alt_km": 1060.934971951665, "timestamp": "2025-12-20T11:30:28.645696+00:00", "meta": {"OBJECT_NAME": "OPS 7034 (TRANSIT 18)", "OBJECT_ID": "1968-012A", "EPOCH": "2025-12-20T04:54:44.982720", "MEAN_MOTION": 13.5156731, "ECCENTRICITY": 0.0074573, "INCLINATION": 90.0284, "RA_OF_ASC_NODE": 273.6601, "ARG_OF_PERICENTER": 147.6112, "MEAN_ANOMALY": 13.523, "EPHEMERIS_TYPE": 0, "CLASSIFICATION_TYPE": "U", "NORAD_CAT_ID": 3133, "ELEMENT_SET_NO": 999, "REV_AT_EPOCH": 57019, "BSTAR": 0.00014919, "MEAN_MOTION_DOT": 1.09e-06, "MEAN_MOTION_DDOT": 0}, "tle": {"line1": "1 03133U 68012A   25354.20468730  .00000109  00000+0  14919-3 0  9992", "line2": "2 03133  90.0284 273.6601 0074573 147.6112  13.5230 13.51567310570196"}}, "geometry": {"type": "Point", "coordinates": [-86.38213653037312, 56.556496104421754]}}, {"type": "Feature", "properties": {"norad_id": 4507, "name": "NNSS 19 (TRANSIT 19)", "group": "nnss", "lat": 23.651252843185926, "lon": -125.46304151371005, "alt_km": 1114.617669297917, "timestamp": "2025-12-20T11:30:28.645709+00:00", "meta": {"OBJECT_NAME": "NNSS 19 (TRANSIT 19)", "OBJECT_ID": "1970-067A", "EPOCH": "2025-12-20T02:30:18.139104", "MEAN_MOTION": 13.51316498, "ECCENTRICITY": 0.017025, "INCLINATION": 90.0051, "RA_OF_ASC_NODE": 234.539, "ARG_OF_PERICENTER": 271.8283, "MEAN_ANOMALY": 86.3378, "EPHEMERIS_TYPE": 0, "CLASSIFICATION_TYPE": "U", "NORAD_CAT_ID": 4507, "ELEMENT_SET_NO": 999, "REV_AT_EPOCH": 72321, "BSTAR": 0.00013229, "MEAN_MOTION_DOT": 1.02e-06, "MEAN_MOTION_DDOT": 0}, "tle": {"line1": "1 04507U 70067A   25354.10437661  .00000102  00000+0  13229-3 0  9995", "line2": "2 04507  90.0051 234.5390 0170250 271.8283  86.3378 13.51316498723216"}}, "geometry": {"type": "Point", "coordinates": [-125.46304151371005, 23.651252843185926]}}, {"type": "Feature", "properties": {"norad_id": 6909, "name": "NNSS 20 (TRANSIT 20)", "group": "nnss", "lat": -67.13422181186142, "lon": -105.40273674745306, "alt_km": 1062.384818936771, "timestamp": "2025-12-20T11:30:28.645720+00:00", "meta": {"OBJECT_NAME": "NNSS 20 (TRANSIT 20)", "OBJECT_ID": "1973-081A", "EPOCH": "2025-12-19T23:34:38.311104", "MEAN_MOTION": 13.71437816, "ECCENTRICITY": 0.0156435, "INCLINATION": 89.8563, "RA_OF_ASC_NODE": 254.9457, "ARG_OF_PERICENTER": 56.8677, "MEAN_ANOMALY": 304.7387, "EPHEMERIS_TYPE": 0, "CLASSIFICATION_TYPE": "U", "NORAD_CAT_ID": 6909, "ELEMENT_SET_NO": 999, "REV_AT_EPOCH": 80460, "BSTAR": 0.00023602, "MEAN_MOTION_DOT": 2.43e-06, "MEAN_MOTION_DDOT": 0}, "tle": {"line1": "1 06909U 73081A   25353.98238786  .00000243  00000+0  23602-3 0  9996", "line2": "2 06909  89.8563 254.9457 0156435  56.8677 304.7387 13.71437816804605"}}, "geometry": {"type": "Point", "coordinates": [-105.40273674745306, -67.13422181186142]}}, {"type": "Feature", "properties": {"norad_id": 10457, "name": "TRANSAT", "group": "nnss", "lat": -39.00302761522317, "lon": 78.03781543942993, "alt_km": 1100.0734871637296, "timestamp": "2025-12-20T11:30:28.645731+00:00", "meta": {"OBJECT_NAME": "TRANSAT", "OBJECT_ID": "1977-106A", "EPOCH": "2025-12-20T00:05:57.765984", "MEAN_MOTION": 13.48944613, "ECCENTRICITY": 0.0026083, "INCLINATION": 89.648, "RA_OF_ASC_NODE": 78.3399, "ARG_OF_PERICENTER": 168.68, "MEAN_ANOMALY": 5.219, "EPHEMERIS_TYPE": 0, "CLASSIFICATION_TYPE": "U", "NORAD_CAT_ID": 10457, "ELEMENT_SET_NO": 999, "REV_AT_EPOCH": 36841, "BSTAR": 0.00011135, "MEAN_MOTION_DOT": 8e-07, "MEAN_MOTION_DDOT": 0}, "tle": {"line1": "1 10457U 77106A   25354.00414081  .00000080  00000+0  11135-3 0  9996", "line2": "2 10457  89.6480  78.3399 0026083 168.6800   5.2190 13.48944613368413"}}, "geometry": {"type": "Point", "coordinates": [78.03781543942993, -39.00302761522317]}}, {"type": "Feature", "properties": {"norad_id": 12458, "name": "NOVA 1", "group": "nnss", "lat": -48.537839395444344, "lon": -88.55741283554423, "alt_km": 1188.7368372790352, "timestamp": "2025-12-20T11:30:28.645743+00:00", "meta": {"OBJECT_NAME": "NOVA 1", "OBJECT_ID": "1981-044A", "EPOCH": "2025-12-20T05:02:58.430400", "MEAN_MOTION": 13.23279054, "ECCENTRICITY": 0.0015861, "INCLINATION": 89.8528, "RA_OF_ASC_NODE": 91.2797, "ARG_OF_PERICENTER": 85.6477, "MEAN_ANOMALY": 301.5055, "EPHEMERIS_TYPE": 0, "CLASSIFICATION_TYPE": "U", "NORAD_CAT_ID": 12458, "ELEMENT_SET_NO": 999, "REV_AT_EPOCH": 15285, "BSTAR": 8.0389e-05, "MEAN_MOTION_DOT": 4.3e-07, "MEAN_MOTION_DDOT": 0}, "tle": {"line1": "1 12458U 81044A   25354.21039850  .00000043  00000+0  80389-4 0  9992", "line2": "2 12458  89.8528  91.2797 0015861  85.6477 301.5055 13.23279054152851"}}, "geometry": {"type": "Point", "coordinates": [-88.55741283554423, -48.537839395444344]}}, {"type": "Feature", "properties": {"norad_id": 15362, "name": "NOVA 3", "group": "nnss", "lat": 85.26659927065391, "lon": -97.89733177373958, "alt_km": 1184.20620923978, "timestamp": "2025-12-20T11:30:28.645753+00:00", "meta": {"OBJECT_NAME": "NOVA 3", "OBJECT_ID": "1984-110A", "EPOCH": "2025-12-20T01:01:15.341952", "MEAN_MOTION": 13.23045356, "ECCENTRICITY": 0.003001, "INCLINATION": 90.1222, "RA_OF_ASC_NODE": 80.6207, "ARG_OF_PERICENTER": 310.9918, "MEAN_ANOMALY": 223.5164, "EPHEMERIS_TYPE": 0, "CLASSIFICATION_TYPE": "U", "NORAD_CAT_ID": 15362, "ELEMENT_SET_NO": 999, "REV_AT_EPOCH": 98795, "BSTAR": 9.161e-05, "MEAN_MOTION_DOT": 4.7e-07, "MEAN_MOTION_DDOT": 0}, "tle": {"line1": "1 15362U 84110A   25354.04253868  .00000047  00000+0  91610-4 0  9997", "line2": "2 15362  90.1222  80.6207 0030010 310.9918 223.5164 13.23045356987956"}}, "geometry": {"type": "Point", "coordinates": [-97.89733177373958, 85.26659927065391]}}, {"type": "Feature", "properties": {"norad_id": 15935, "name": "OSCAR 30", "group": "nnss", "lat": 0.19594967244356326, "lon": -80.02571343990009, "alt_km": 1183.5523600059078, "timestamp": "2025-12-20T11:30:28.645764+00:00", "meta": {"OBJECT_NAME": "OSCAR 30", "OBJECT_ID": "1985-066A", "EPOCH": "2025-12-20T02:29:33.840960", "MEAN_MOTION": 13.36079328, "ECCENTRICITY": 0.01692, "INCLINATION": 90.1655, "RA_OF_ASC_NODE": 99.9676, "ARG_OF_PERICENTER": 63.3487, "MEAN_ANOMALY": 108.9124, "EPHEMERIS_TYPE": 0, "CLASSIFICATION_TYPE": "U", "NORAD_CAT_ID": 15935, "ELEMENT_SET_NO": 999, "REV_AT_EPOCH": 96551, "BSTAR": 0.00010067, "MEAN_MOTION_DOT": 6.6e-07, "MEAN_MOTION_DDOT": 0}, "tle": {"line1": "1 15935U 85066A   25354.10386390  .00000066  00000+0  10067-3 0  9995", "line2": "2 15935  90.1655  99.9676 0169200  63.3487 108.9124 13.36079328965519"}}, "geometry": {"type": "Point", "coordinates": [-80.02571343990009, 0.19594967244356326]}}, {"type": "Feature", "properties": {"norad_id": 15936, "name": "OSCAR 24", "group": "nnss", "lat": -69.35524569053047, "lon": -88.03340839414831, "alt_km": 1259.631980237872, "timestamp": "2025-12-20T11:30:28.645774+00:00", "meta": {"OBJECT_NAME": "OSCAR 24", "OBJECT_ID": "1985-066B", "EPOCH": "2025-12-20T04:55:15.563136", "MEAN_MOTION": 13.35936745, "ECCENTRICITY": 0.0170324, "INCLINATION": 90.1791, "RA_OF_ASC_NODE": 92.4374, "ARG_OF_PERICENTER": 69.504, "MEAN_ANOMALY": 300.6372, "EPHEMERIS_TYPE": 0, "CLASSIFICATION_TYPE": "U", "NORAD_CAT_ID": 15936, "ELEMENT_SET_NO": 999, "REV_AT_EPOCH": 96743, "BSTAR": 9.816e-05, "MEAN_MOTION_DOT": 6.4e-07, "MEAN_MOTION_DDOT": 0}, "tle": {"line1": "1 15936U 85066B   25354.20504124  .00000064  00000+0  98160-4 0  9993", "line2": "2 15936  90.1791  92.4374 0170324  69.5040 300.6372 13.35936745967439"}}, "geometry": {"type": "Point", "coordinates": [-88.03340839414831, -69.35524569053047]}}]}